NORAD_CAT_ID,OBJECT_NAME,OBJECT_TYPE,EPOCH,MEAN_MOTION,ECCENTRICITY,INCLINATION,RA_OF_ASC_NODE,ARG_OF_PERICENTER,MEAN_ANOMALY,BSTAR,MEAN_MOTION_DOT,MEAN_MOTION_DDOT,TLE_LINE0,TLE_LINE1,TLE_LINE2,SEMIMAJOR_AXIS,PERIOD,APOGEE,PERIGEE,DECAYED
54796.0,STARLINK-5415,PAYLOAD,2023-08-15 15:52:28,15.08850498,0.0001168,53.2157,275.3554,88.01,272.1025,0.00016848,2.395e-05,0.0,0 STARLINK-5415,1 54796U 22175AQ  23227.66143685  .00002395  00000-0  16848-3 0  9992,2 54796  53.2157 275.3554 0001168  88.0100 272.1025 15.08850498 36512,6917.848,95.437,540.521,538.905,0.0
54796.0,STARLINK-5415,PAYLOAD,2023-08-16 09:21:43,15.08845301,0.0001322,53.2164,272.0839,85.8245,274.2898,5.0837e-05,5.21e-06,0.0,0 STARLINK-5415,1 54796U 22175AQ  23228.39008277  .00000521  00000-0  50837-4 0  9996,2 54796  53.2164 272.0839 0001322  85.8245 274.2898 15.08845301 36627,6917.864,95.437,540.644,538.815,0.0
54796.0,STARLINK-5415,PAYLOAD,2023-08-17 13:58:39,15.08847549,0.0001496,53.2157,266.7286,109.2112,250.9042,0.00011752,1.583e-05,0.0,0 STARLINK-5415,1 54796U 22175AQ  23229.58239849  .00001583  00000-0  11752-3 0  9990,2 54796  53.2157 266.7286 0001496 109.2112 250.9042 15.08847549 36809,6917.857,95.437,540.757,538.687,0.0
54796.0,STARLINK-5415,PAYLOAD,2023-08-18 02:41:45,15.08834444,0.0001733,53.2153,264.3482,105.7599,254.3584,4.909e-05,4.93e-06,0.0,0 STARLINK-5415,1 54796U 22175AQ  23230.11232639  .00000493  00000-0  49090-4 0  9997,2 54796  53.2153 264.3482 0001733 105.7599 254.3584 15.08834444 36888,6917.897,95.438,540.961,538.563,0.0
54796.0,STARLINK-5415,PAYLOAD,2023-08-18 13:49:26,15.0884115,0.0001341,53.2162,262.2703,93.289,266.8255,4.8653e-05,4.87e-06,0.0,0 STARLINK-5415,1 54796U 22175AQ  23230.57600332  .00000487  00000-0  48653-4 0  9993,2 54796  53.2162 262.2703 0001341  93.2890 266.8255 15.08841150 36954,6917.877,95.437,540.67,538.814,0.0
54796.0,STARLINK-5415,PAYLOAD,2023-08-20 08:44:51,15.08834961,0.0001449,53.2161,254.2404,105.1862,254.929,6.2562e-05,7.08e-06,0.0,0 STARLINK-5415,1 54796U 22175AQ  23232.36449017  .00000708  00000-0  62562-4 0  9994,2 54796  53.2161 254.2404 0001449 105.1862 254.9290 15.08834961 37223,6917.896,95.438,540.763,538.758,0.0
54796.0,STARLINK-5415,PAYLOAD,2023-08-21 10:11:02,15.08839871,0.0001402,53.216,249.4831,95.5369,264.5783,5.1508e-05,5.32e-06,0.0,0 STARLINK-5415,1 54796U 22175AQ  23233.42432974  .00000532  00000-0  51508-4 0  9999,2 54796  53.2160 249.4831 0001402  95.5369 264.5783 15.08839871 37381,6917.881,95.438,540.716,538.776,0.0
54796.0,STARLINK-5415,PAYLOAD,2023-08-22 13:12:35,15.08843422,0.0001352,53.2155,244.4284,93.1819,266.9327,9.6425e-05,1.247e-05,0.0,0 STARLINK-5415,1 54796U 22175AQ  23234.55040791  .00001247  00000-0  96425-4 0  9997,2 54796  53.2155 244.4284 0001352  93.1819 266.9327 15.08843422 37556,6917.87,95.437,540.67,538.8,0.0
54796.0,STARLINK-5415,PAYLOAD,2023-08-23 00:20:17,15.08835803,0.0001394,53.2153,242.3471,91.5184,268.5968,4.5381e-05,4.34e-06,0.0,0 STARLINK-5415,1 54796U 22175AQ  23235.01409501  .00000434  00000-0  45381-4 0  9999,2 54796  53.2153 242.3471 0001394  91.5184 268.5968 15.08835803 37623,6917.893,95.438,540.723,538.794,0.0
54796.0,STARLINK-5415,PAYLOAD,2023-08-24 11:18:46,15.08846369,0.0001374,53.2152,235.8046,92.35,267.765,8.5205e-05,1.069e-05,0.0,0 STARLINK-5415,1 54796U 22175AQ  23236.47136681  .00001069  00000-0  85205-4 0  9990,2 54796  53.2152 235.8046 0001374  92.3500 267.7650 15.08846369 40000,6917.861,95.437,540.676,538.775,0.0
54796.0,STARLINK-5415,PAYLOAD,2023-08-25 06:23:24,15.08841586,0.0001489,53.2156,232.2362,95.6069,264.5093,6.4049e-05,7.32e-06,0.0,0 STARLINK-5415,1 54796U 22175AQ  23237.26625018  .00000732  00000-0  64049-4 0  9994,2 54796  53.2156 232.2362 0001489  95.6069 264.5093 15.08841586 37962,6917.876,95.437,540.771,538.71,0.0
54796.0,STARLINK-5415,PAYLOAD,2023-08-25 11:09:33,15.08844364,0.0001468,53.2155,231.3435,99.0074,261.1084,8.4805e-05,1.062e-05,0.0,0 STARLINK-5415,1 54796U 22175AQ  23237.46496742  .00001062  00000-0  84805-4 0  9995,2 54796  53.2155 231.3435 0001468  99.0074 261.1084 15.08844364 40158,6917.867,95.437,540.748,538.717,0.0
54796.0,STARLINK-5415,PAYLOAD,2023-08-26 11:00:20,15.08842007,0.0001645,53.2166,226.882,99.7669,260.3509,-8.3372e-07,-3.01e-06,0.0,0 STARLINK-5415,1 54796U 22175AQ  23238.45857139 -.00000301  00000-0 -83372-6 0  9993,2 54796  53.2166 226.8820 0001645  99.7669 260.3509 15.08842007 40303,6917.874,95.437,540.877,538.601,0.0
54796.0,STARLINK-5415,PAYLOAD,2023-08-27 01:18:49,15.08835529,0.0001665,53.2144,224.2059,110.5438,249.5732,2.0835e-05,4.4e-07,0.0,0 STARLINK-5415,1 54796U 22175AQ  23239.05473521  .00000044  00000-0  20835-4 0  9994,2 54796  53.2144 224.2059 0001665 110.5438 249.5732 15.08835529 38230,6917.894,95.438,540.911,538.607,0.0
54796.0,STARLINK-5415,PAYLOAD,2023-08-27 04:29:35,15.08836478,0.0001471,53.2154,223.6119,99.176,260.9399,1.3471e-05,-7.4e-07,0.0,0 STARLINK-5415,1 54796U 22175AQ  23239.18721568 -.00000074  00000-0  13471-4 0  9997,2 54796  53.2154 223.6119 0001471  99.1760 260.9399 15.08836478 40419,6917.891,95.438,540.774,538.739,0.0
54796.0,STARLINK-5415,PAYLOAD,2023-08-27 09:15:44,15.08838387,0.0001513,53.216,222.7209,100.3977,259.7186,5.0388e-05,5.14e-06,0.0,0 STARLINK-5415,1 54796U 22175AQ  23239.38593383  .00000514  00000-0  50388-4 0  9997,2 54796  53.2160 222.7209 0001513 100.3977 259.7186 15.08838387 40442,6917.885,95.438,540.797,538.704,0.0
54796.0,STARLINK-5415,PAYLOAD,2023-08-28 07:31:09,15.08827973,0.0001407,53.2163,218.5583,96.2711,263.8441,-2.268e-05,-6.49e-06,0.0,0 STARLINK-5415,1 54796U 22175AQ  23240.31330666 -.00000649  00000-0 -22680-4 0  9990,2 54796  53.2163 218.5583 0001407  96.2711 263.8441 15.08827973 38428,6917.917,95.438,540.756,538.809,0.0
54796.0,STARLINK-5415,PAYLOAD,2023-08-29 07:21:55,15.08844258,0.0001311,53.2159,214.0971,92.0558,268.0584,9.0108e-05,1.147e-05,0.0,0 STARLINK-5415,1 54796U 22175AQ  23241.30689666  .00001147  00000-0  90108-4 0  9999,2 54796  53.2159 214.0971 0001311  92.0558 268.0584 15.08844258 38578,6917.867,95.437,540.639,538.825,0.0
54796.0,STARLINK-5415,PAYLOAD,2023-08-30 05:37:20,15.08836394,0.0001307,53.216,209.9337,85.2727,274.8414,0.00012628,1.722e-05,0.0,0 STARLINK-5415,1 54796U 22175AQ  23242.23426276  .00001722  00000-0  12628-3 0  9997,2 54796  53.2160 209.9337 0001307  85.2727 274.8414 15.08836394 38711,6917.891,95.438,540.661,538.852,0.0
54796.0,STARLINK-5415,PAYLOAD,2023-08-30 10:23:29,15.08841151,0.0001309,53.2161,209.0415,85.1519,274.9623,0.00015826,2.232e-05,0.0,0 STARLINK-5415,1 54796U 22175AQ  23242.43297927  .00002232  00000-0  15826-3 0  9998,2 54796  53.2161 209.0415 0001309  85.1519 274.9623 15.08841151 40904,6917.877,95.437,540.647,538.836,0.0
54796.0,STARLINK-5415,PAYLOAD,2023-08-31 03:52:43,15.08845397,0.0001234,53.2159,205.7701,100.0579,260.0552,1.4315e-05,-6e-07,0.0,0 STARLINK-5415,1 54796U 22175AQ  23243.16161944 -.00000060  00000-0  14315-4 0  9999,2 54796  53.2159 205.7701 0001234 100.0579 260.0552 15.08845397 41018,6917.864,95.437,540.583,538.875,0.0
54796.0,STARLINK-5415,PAYLOAD,2023-09-01 03:43:31,15.08838554,4.16e-05,53.2166,201.3115,354.6698,5.429,4.0963e-05,3.64e-06,0.0,0 STARLINK-5415,1 54796U 22175AQ  23244.15522315  .00000364  00000-0  40963-4 0  9996,2 54796  53.2166 201.3115 0000416 354.6698   5.4290 15.08838554 39000,6917.885,95.438,540.038,539.462,0.0
54796.0,STARLINK-5415,PAYLOAD,2023-09-02 03:34:17,15.08848745,0.000133,53.2165,196.8493,87.831,272.2835,0.00010352,1.36e-05,0.0,0 STARLINK-5415,1 54796U 22175AQ  23245.14881307  .00001360  00000-0  10352-3 0  9990,2 54796  53.2165 196.8493 0001330  87.8310 272.2835 15.08848745 39156,6917.854,95.437,540.639,538.799,0.0
54796.0,STARLINK-5415,PAYLOAD,2023-09-02 21:03:32,15.08838323,0.000123,53.2163,193.5784,90.9806,269.1327,1.5242e-05,-4.5e-07,0.0,0 STARLINK-5415,1 54796U 22175AQ  23245.87746240 -.00000045  00000-0  15242-4 0  9990,2 54796  53.2163 193.5784 0001230  90.9806 269.1327 15.08838323 41420,6917.886,95.438,540.601,538.9,0.0
54796.0,STARLINK-5415,PAYLOAD,2023-09-03 00:14:18,15.0883328,0.0001049,53.2169,192.9869,77.9675,282.1435,6.2338e-05,7.04e-06,0.0,0 STARLINK-5415,1 54796U 22175AQ  23246.00994001  .00000704  00000-0  62338-4 0  9995,2 54796  53.2169 192.9869 0001049  77.9675 282.1435 15.08833280 39283,6917.901,95.438,540.492,539.04,0.0
54796.0,STARLINK-5415,PAYLOAD,2023-09-03 12:57:24,15.08836289,0.0001203,53.2155,190.6065,92.092,268.021,1.7431e-05,-1e-07,0.0,0 STARLINK-5415,1 54796U 22175AQ  23246.53986270 -.00000010  00000-0  17431-4 0  9997,2 54796  53.2155 190.6065 0001203  92.0920 268.0210 15.08836289 41520,6917.892,95.438,540.589,538.925,0.0
54796.0,STARLINK-5415,PAYLOAD,2023-09-04 03:15:53,15.08827098,0.0001282,53.2192,187.9336,95.1334,264.9804,-9.673e-06,-4.42e-06,0.0,0 STARLINK-5415,1 54796U 22175AQ  23247.13603272 -.00000442  00000-0 -96730-5 0  9992,2 54796  53.2192 187.9336 0001282  95.1334 264.9804 15.08827098 39452,6917.92,95.438,540.672,538.898,0.0
54796.0,STARLINK-5415,PAYLOAD,2023-09-04 12:48:11,15.08830764,0.0001255,53.2178,186.1482,94.4928,265.6207,2.0308e-05,3.5e-07,0.0,0 STARLINK-5415,1 54796U 22175AQ  23247.53347179  .00000035  00000-0  20308-4 0  9990,2 54796  53.2178 186.1482 0001255  94.4928 265.6207 15.08830764 41676,6917.909,95.438,540.642,538.905,0.0
54796.0,STARLINK-5415,PAYLOAD,2023-09-04 19:09:43,15.0888089,0.0001089,53.2168,184.9574,103.6439,256.4675,-0.00051755,-8.524e-05,0.0,0 STARLINK-5415,1 54796U 22175AQ  23247.79842494 -.00008524  00000-0 -51755-3 0  9990,2 54796  53.2168 184.9574 0001089 103.6439 256.4675 15.08880890 39554,6917.755,95.435,540.374,538.867,0.0
54796.0,STARLINK-5415,PAYLOAD,2023-09-05 03:06:40,15.08830102,0.0001479,53.2169,183.4704,104.0134,256.1023,4.7836e-05,4.73e-06,0.0,0 STARLINK-5415,1 54796U 22175AQ  23248.12963380  .00000473  00000-0  47836-4 0  9995,2 54796  53.2169 183.4704 0001479 104.0134 256.1023 15.08830102 39605,6917.911,95.438,540.799,538.752,0.0
